[{"OBJECT_NAME":"FLOCK 4G-5","OBJECT_ID":"2025-009BG","EPOCH":"2026-03-09T10:57:11.608704","MEAN_MOTION":15.28679529,"ECCENTRICITY":0.00020946,"INCLINATION":97.4058,"RA_OF_ASC_NODE":151.2478,"ARG_OF_PERICENTER":314.5072,"MEAN_ANOMALY":45.5996,"EPHEMERIS_TYPE":0,"CLASSIFICATION_TYPE":"U","NORAD_CAT_ID":62663,"ELEMENT_SET_NO":999,"REV_AT_EPOCH":6369,"BSTAR":0.00040688068,"MEAN_MOTION_DOT":0.00011278,"MEAN_MOTION_DDOT":0},{"OBJECT_NAME":"STARLINK-34065","OBJECT_ID":"2025-092K","EPOCH":"2026-03-09T07:56:21.782688","MEAN_MOTION":15.27617827,"ECCENTRICITY":0.00033261,"INCLINATION":42.9906,"RA_OF_ASC_NODE":170.7214,"ARG_OF_PERICENTER":146.7336,"MEAN_ANOMALY":213.3725,"EPHEMERIS_TYPE":0,"CLASSIFICATION_TYPE":"U","NORAD_CAT_ID":63813,"ELEMENT_SET_NO":999,"REV_AT_EPOCH":4854,"BSTAR":0.0016483588,"MEAN_MOTION_DOT":0.00045434,"MEAN_MOTION_DDOT":0}]
